[{"OBJECT_NAME":"STARLINK-32686","OBJECT_ID":"2024-229A","EPOCH":"2026-03-09T21:18:29.280096","MEAN_MOTION":15.27625097,"ECCENTRICITY":0.00023437,"INCLINATION":43.0011,"RA_OF_ASC_NODE":265.9713,"ARG_OF_PERICENTER":257.361,"MEAN_ANOMALY":102.698,"EPHEMERIS_TYPE":0,"CLASSIFICATION_TYPE":"U","NORAD_CAT_ID":62192,"ELEMENT_SET_NO":999,"REV_AT_EPOCH":7063,"BSTAR":0.001166985,"MEAN_MOTION_DOT":0.00032036,"MEAN_MOTION_DDOT":0},{"OBJECT_NAME":"PUCP-SAT 1","OBJECT_ID":"2013-066AC","EPOCH":"2026-03-09T22:02:13.763904","MEAN_MOTION":15.29426022,"ECCENTRICITY":0.00136836,"INCLINATION":97.5787,"RA_OF_ASC_NODE":61.0032,"ARG_OF_PERICENTER":300.1183,"MEAN_ANOMALY":59.87,"EPHEMERIS_TYPE":0,"CLASSIFICATION_TYPE":"U","NORAD_CAT_ID":39442,"ELEMENT_SET_NO":999,"REV_AT_EPOCH":66907,"BSTAR":0.00088755185,"MEAN_MOTION_DOT":0.00025373,"MEAN_MOTION_DDOT":0}]
